{
    "type": "Feature",
    "geometry": {
        "type": "Polygon",
        "coordinates": [
            [
                [
                    27.180726889752329,
                    38.447981019090939
                ],
                [
                    27.180875763498218,
                    38.447680265333204
                ],
                [
                    27.181147023638484,
                    38.44615097113283
                ],
                [
                    27.181154131818509,
                    38.445705540562493
                ],
                [
                    27.180680946298761,
                    38.444837313155141
                ],
                [
                    27.180262067957869,
                    38.443749606934894
                ],
                [
                    27.180115304927259,
                    38.442741488925968
                ],
                [
                    27.180118038336644,
                    38.442063818171867
                ],
                [
                    27.180233418778897,
                    38.440311040657889
                ],
                [
                    27.180533589217166,
                    38.438120917789526
                ],
                [
                    27.18054647877959,
                    38.437653420540734
                ],
                [
                    27.180580167997505,
                    38.437367415444669
                ],
                [
                    27.1806435040075,
                    38.432271042425235
                ],
                [
                    27.180215354945684,
                    38.429461901911466
                ],
                [
                    27.180133083040271,
                    38.4284224766826
                ],
                [
                    27.180175500078725,
                    38.427362372430331
                ],
                [
                    27.1801223514847,
                    38.426813453084328
                ],
                [
                    27.179880643789048,
                    38.426086768272043
                ],
                [
                    27.179552899237116,
                    38.425916556975281
                ],
                [
                    27.179509829487557,
                    38.425551421821211
                ],
                [
                    27.178764777176664,
                    38.424251186188158
                ],
                [
                    27.178784784175132,
                    38.424089579095373
                ],
                [
                    27.178861317408622,
                    38.424057853587385
                ],
                [
                    27.179030578030794,
                    38.424070435918466
                ],
                [
                    27.179023755254963,
                    38.423880959178142
                ],
                [
                    27.178841505061,
                    38.423661114460941
                ],
                [
                    27.178782285499757,
                    38.423424568931694
                ],
                [
                    27.17871907772361,
                    38.422989138219876
                ],
                [
                    27.1787260731306,
                    38.422784828547435
                ],
                [
                    27.178821324177139,
                    38.422580427075374
                ],
                [
                    27.179257955127483,
                    38.422042305560396
                ],
                [
                    27.179381849417698,
                    38.421413360695126
                ],
                [
                    27.179502655281642,
                    38.421122667886621
                ],
                [
                    27.1793317805208,
                    38.420434757872258
                ],
                [
                    27.179152527564028,
                    38.420184131577216
                ],
                [
                    27.180216979256095,
                    38.4195143890106
                ],
                [
                    27.1808497348149,
                    38.419168874703679
                ],
                [
                    27.181903080243583,
                    38.418826980170394
                ],
                [
                    27.182446989421553,
                    38.418735020608004
                ],
                [
                    27.182733661801514,
                    38.418686321640017
                ],
                [
                    27.182821201256939,
                    38.418640393159805
                ],
                [
                    27.183839926116121,
                    38.417995622246742
                ],
                [
                    27.18650997405862,
                    38.417463378183577
                ],
                [
                    27.186417353088505,
                    38.417250728443896
                ],
                [
                    27.186828512932756,
                    38.4171510552542
                ],
                [
                    27.186812125546968,
                    38.416997500367664
                ],
                [
                    27.186846890240339,
                    38.41687848998145
                ],
                [
                    27.18636266516928,
                    38.416746027372056
                ],
                [
                    27.186129192835953,
                    38.416685267335744
                ],
                [
                    27.186059977816562,
                    38.416621131214448
                ],
                [
                    27.186054724384942,
                    38.415962404230683
                ],
                [
                    27.186038651882733,
                    38.415590495080146
                ],
                [
                    27.186049628238639,
                    38.415464223356416
                ],
                [
                    27.186079913563606,
                    38.415316273464875
                ],
                [
                    27.186149127826805,
                    38.415081419236472
                ],
                [
                    27.186203199853214,
                    38.414778393961015
                ],
                [
                    27.186251268402746,
                    38.414735971219379
                ],
                [
                    27.186230622968178,
                    38.414537667350906
                ],
                [
                    27.186298946647863,
                    38.414198714998776
                ],
                [
                    27.186156485931285,
                    38.413918744690463
                ],
                [
                    27.186168077273557,
                    38.413511737768516
                ],
                [
                    27.186527581838398,
                    38.41268332438225
                ],
                [
                    27.186720244088423,
                    38.412691545277994
                ],
                [
                    27.186936604334846,
                    38.412567915187118
                ],
                [
                    27.186793885992039,
                    38.41250498436456
                ],
                [
                    27.186892037255348,
                    38.412354760876795
                ],
                [
                    27.18715026122166,
                    38.412253463977223
                ],
                [
                    27.187291182503259,
                    38.412207248240726
                ],
                [
                    27.187268910584411,
                    38.412186661550017
                ],
                [
                    27.1872576080996,
                    38.412170737748909
                ],
                [
                    27.187259345654503,
                    38.412164351192764
                ],
                [
                    27.187245373772104,
                    38.411988018481033
                ],
                [
                    27.187455797227784,
                    38.411947699104431
                ],
                [
                    27.187596823332832,
                    38.411823409471879
                ],
                [
                    27.187982109891308,
                    38.411562524952735
                ],
                [
                    27.188063221411316,
                    38.411492910766505
                ],
                [
                    27.187908424206928,
                    38.411163157323365
                ],
                [
                    27.187955959234223,
                    38.411083808528893
                ],
                [
                    27.187925821113719,
                    38.411062356478112
                ],
                [
                    27.187498980817054,
                    38.411174824515221
                ],
                [
                    27.187276138630139,
                    38.411198424211847
                ],
                [
                    27.187044105405288,
                    38.411185820543793
                ],
                [
                    27.186684714660142,
                    38.41112183191138
                ],
                [
                    27.186417089631369,
                    38.410909223589414
                ],
                [
                    27.186410718015512,
                    38.410794741047724
                ],
                [
                    27.1864096042546,
                    38.410794060613036
                ],
                [
                    27.186276449100934,
                    38.4106843214203
                ],
                [
                    27.18636105108807,
                    38.410300647818175
                ],
                [
                    27.18631477696691,
                    38.410043946314957
                ],
                [
                    27.186233143245012,
                    38.409960675056347
                ],
                [
                    27.186218848060975,
                    38.409776662032989
                ],
                [
                    27.186459314691607,
                    38.409257275784192
                ],
                [
                    27.186045954426387,
                    38.409153969603523
                ],
                [
                    27.186095717597592,
                    38.408465253793374
                ],
                [
                    27.186538940936398,
                    38.408434527133934
                ],
                [
                    27.186642722075174,
                    38.407573193662905
                ],
                [
                    27.189444545756668,
                    38.408070280738777
                ],
                [
                    27.189403276853525,
                    38.407917079360189
                ],
                [
                    27.189253651582408,
                    38.407671676955225
                ],
                [
                    27.18913093991852,
                    38.40755641667311
                ],
                [
                    27.188780236238458,
                    38.4073515082187
                ],
                [
                    27.188606426181295,
                    38.407278104243268
                ],
                [
                    27.188567823769258,
                    38.407323940433322
                ],
                [
                    27.187317400275109,
                    38.4067271101928
                ],
                [
                    27.186691956090435,
                    38.4063982875079
                ],
                [
                    27.186678614546551,
                    38.406397098534129
                ],
                [
                    27.186757071567492,
                    38.406331601279312
                ],
                [
                    27.187230937300303,
                    38.405935968067226
                ],
                [
                    27.187722852774165,
                    38.40552525841958
                ],
                [
                    27.188112894513864,
                    38.405258615260571
                ],
                [
                    27.188774432249009,
                    38.40498859604331
                ],
                [
                    27.188902012836468,
                    38.404936520937227
                ],
                [
                    27.189518365755937,
                    38.4050873969642
                ],
                [
                    27.190183727627112,
                    38.405326933208173
                ],
                [
                    27.191572418424382,
                    38.405994132905491
                ],
                [
                    27.194130341401671,
                    38.407153363217979
                ],
                [
                    27.19202309036972,
                    38.407589719960093
                ],
                [
                    27.190852877872629,
                    38.4079701009204
                ],
                [
                    27.190452579263621,
                    38.408087057416481
                ],
                [
                    27.193862322661452,
                    38.408225515400531
                ],
                [
                    27.195312356455752,
                    38.408553914680986
                ],
                [
                    27.196410904801645,
                    38.408746545069874
                ],
                [
                    27.198582642319504,
                    38.409127325767606
                ],
                [
                    27.200283977499573,
                    38.408532752163893
                ],
                [
                    27.202867828026147,
                    38.407958029973685
                ],
                [
                    27.203906736934883,
                    38.4079765651268
                ],
                [
                    27.20525518198685,
                    38.408164740724835
                ],
                [
                    27.206498074416224,
                    38.408130804205221
                ],
                [
                    27.207071481717328,
                    38.408250460794974
                ],
                [
                    27.209013892169196,
                    38.407281673866542
                ],
                [
                    27.209182674172713,
                    38.407033686691925
                ],
                [
                    27.210335952711283,
                    38.40672042839779
                ],
                [
                    27.210808997890524,
                    38.405633569962994
                ],
                [
                    27.211404294413352,
                    38.404959299688372
                ],
                [
                    27.21202834874434,
                    38.402656605265939
                ],
                [
                    27.210726466860564,
                    38.401241423045541
                ],
                [
                    27.2110114680978,
                    38.39971409678629
                ],
                [
                    27.211102034330303,
                    38.398811021302819
                ],
                [
                    27.210348036046991,
                    38.398052282819322
                ],
                [
                    27.21047035266842,
                    38.397966494440183
                ],
                [
                    27.210525293615841,
                    38.397851092278813
                ],
                [
                    27.21084896986067,
                    38.397363151256805
                ],
                [
                    27.211104629665883,
                    38.39702846160958
                ],
                [
                    27.212082048848963,
                    38.396650768155851
                ],
                [
                    27.212890043084929,
                    38.396309757057317
                ],
                [
                    27.213283283334523,
                    38.395261637617722
                ],
                [
                    27.213686048625284,
                    38.395013217767215
                ],
                [
                    27.213959282471119,
                    38.394625312162276
                ],
                [
                    27.214385464059543,
                    38.3941101075705
                ],
                [
                    27.214442565646461,
                    38.393964704734174
                ],
                [
                    27.215204386402256,
                    38.394067194620121
                ],
                [
                    27.215917629121279,
                    38.392796549765386
                ],
                [
                    27.215916771943789,
                    38.392508143248868
                ],
                [
                    27.216118497791793,
                    38.392190827359173
                ],
                [
                    27.216272420565943,
                    38.391467489239822
                ],
                [
                    27.216277079799749,
                    38.390649507807943
                ],
                [
                    27.2159648778368,
                    38.390630541065718
                ],
                [
                    27.216507785120811,
                    38.389507270065472
                ],
                [
                    27.217093010578218,
                    38.389527412321264
                ],
                [
                    27.217118702278931,
                    38.388596041000241
                ],
                [
                    27.216800379675266,
                    38.387711655358366
                ],
                [
                    27.215919691805766,
                    38.387361523445172
                ],
                [
                    27.215406682963408,
                    38.386603119363244
                ],
                [
                    27.215164436195813,
                    38.386246224033975
                ],
                [
                    27.214961677980835,
                    38.386048383780263
                ],
                [
                    27.214857729291705,
                    38.3859412558111
                ],
                [
                    27.214752873713469,
                    38.385561220349508
                ],
                [
                    27.215301041552777,
                    38.385156575368534
                ],
                [
                    27.215318568298915,
                    38.384939640957334
                ],
                [
                    27.21612820196221,
                    38.384602206782482
                ],
                [
                    27.216560319760745,
                    38.384214625551621
                ],
                [
                    27.216658729956688,
                    38.384225008980948
                ],
                [
                    27.217319044798188,
                    38.384058768687076
                ],
                [
                    27.218006195293487,
                    38.38396913062239
                ],
                [
                    27.219313016228288,
                    38.383685367163508
                ],
                [
                    27.220058083882023,
                    38.383092387082037
                ],
                [
                    27.220820424188059,
                    38.38274146120154
                ],
                [
                    27.221914646800006,
                    38.3833233673277
                ],
                [
                    27.221904675982913,
                    38.383528966645954
                ],
                [
                    27.222305039768273,
                    38.383739151943878
                ],
                [
                    27.223099936761066,
                    38.383737642697419
                ],
                [
                    27.223885462767882,
                    38.383643187836817
                ],
                [
                    27.224486145822787,
                    38.383999570925006
                ],
                [
                    27.224662930147652,
                    38.383881247157433
                ],
                [
                    27.22526206016606,
                    38.38339168199429
                ],
                [
                    27.225546776546409,
                    38.38326817256641
                ],
                [
                    27.22574654617539,
                    38.383239185757077
                ],
                [
                    27.226016054002532,
                    38.382752424274635
                ],
                [
                    27.226122435445376,
                    38.382537910391164
                ],
                [
                    27.226122046083209,
                    38.382412775201104
                ],
                [
                    27.226072096763311,
                    38.382377016961449
                ],
                [
                    27.225416436396518,
                    38.381907630715268
                ],
                [
                    27.225581724267258,
                    38.3815021107994
                ],
                [
                    27.225967064016732,
                    38.381263014864587
                ],
                [
                    27.226319965187241,
                    38.380133762232944
                ],
                [
                    27.226931992122193,
                    38.378513454121133
                ],
                [
                    27.227174309436553,
                    38.37838669452843
                ],
                [
                    27.227630629706209,
                    38.377996482554423
                ],
                [
                    27.227756531779573,
                    38.377769004607792
                ],
                [
                    27.227848013717036,
                    38.376768205085867
                ],
                [
                    27.22844679160734,
                    38.375137207535055
                ],
                [
                    27.229899755138053,
                    38.37162701410778
                ],
                [
                    27.230034061318342,
                    38.371352481882369
                ],
                [
                    27.231872735348489,
                    38.370012169034624
                ],
                [
                    27.232226956153678,
                    38.36972429862378
                ],
                [
                    27.232589826789592,
                    38.369415530111667
                ],
                [
                    27.232855773262472,
                    38.3691893282831
                ],
                [
                    27.23347176827416,
                    38.3687278409724
                ],
                [
                    27.233890852033895,
                    38.368439228733955
                ],
                [
                    27.234161118959953,
                    38.368426171321879
                ],
                [
                    27.23471282488628,
                    38.368264894358077
                ],
                [
                    27.235076677183834,
                    38.368076904189
                ],
                [
                    27.2353413664119,
                    38.367897522189416
                ],
                [
                    27.236330087097727,
                    38.366892493790033
                ],
                [
                    27.237309826118128,
                    38.365721075555811
                ],
                [
                    27.237205495430224,
                    38.3645044362609
                ],
                [
                    27.238121139473929,
                    38.36390721791345
                ],
                [
                    27.239520750224905,
                    38.36418459759475
                ],
                [
                    27.240037787333307,
                    38.364099412091448
                ],
                [
                    27.240181576490979,
                    38.36454177526101
                ],
                [
                    27.240644484421402,
                    38.364644987684059
                ],
                [
                    27.240076205916388,
                    38.364958611754943
                ],
                [
                    27.239687381760607,
                    38.365740566374008
                ],
                [
                    27.239627096909469,
                    38.366356301058275
                ],
                [
                    27.240330100801945,
                    38.366416263109286
                ],
                [
                    27.240757933787183,
                    38.3666757747102
                ],
                [
                    27.240900017933679,
                    38.366597371718306
                ],
                [
                    27.241292522644269,
                    38.366935065893976
                ],
                [
                    27.241827042531419,
                    38.367168319761944
                ],
                [
                    27.24154351527093,
                    38.367507400330616
                ],
                [
                    27.241686528463994,
                    38.367715415536942
                ],
                [
                    27.242790019898887,
                    38.367843337041442
                ],
                [
                    27.243038926767454,
                    38.367790742423843
                ],
                [
                    27.243609370635959,
                    38.368128075531658
                ],
                [
                    27.245424707275227,
                    38.368306562795368
                ],
                [
                    27.246173227530271,
                    38.367920303284727
                ],
                [
                    27.247380968971807,
                    38.368068126174272
                ],
                [
                    27.247490995280792,
                    38.369031322925331
                ],
                [
                    27.247100470302961,
                    38.36929253322495
                ],
                [
                    27.246815607306324,
                    38.369241050289553
                ],
                [
                    27.246461552249635,
                    38.369762564283647
                ],
                [
                    27.245680484196161,
                    38.370284969495437
                ],
                [
                    27.247319092639817,
                    38.370802315809691
                ],
                [
                    27.248742996361209,
                    38.370955545825829
                ],
                [
                    27.24890419749865,
                    38.370896151621423
                ],
                [
                    27.249053009246825,
                    38.372042340652392
                ],
                [
                    27.24905395745381,
                    38.3723191098857
                ],
                [
                    27.249037038642189,
                    38.372331556935038
                ],
                [
                    27.24908654092048,
                    38.372825295126141
                ],
                [
                    27.249158125786806,
                    38.37344478893646
                ],
                [
                    27.251024701447811,
                    38.374671089474212
                ],
                [
                    27.252016226294646,
                    38.3751485023766
                ],
                [
                    27.2525764863011,
                    38.375686776030264
                ],
                [
                    27.254509182374075,
                    38.3767415789015
                ],
                [
                    27.257076561502355,
                    38.3778149438851
                ],
                [
                    27.258643575434327,
                    38.378615957078821
                ],
                [
                    27.259060286687895,
                    38.378909520732876
                ],
                [
                    27.257380443551916,
                    38.380414611561477
                ],
                [
                    27.258363913162164,
                    38.381988036551824
                ],
                [
                    27.261119888389455,
                    38.386396831330323
                ],
                [
                    27.261422644730636,
                    38.3883324098269
                ],
                [
                    27.261283242479372,
                    38.3917810617815
                ],
                [
                    27.261032636088792,
                    38.392695534474228
                ],
                [
                    27.260931094028038,
                    38.393767776979821
                ],
                [
                    27.261248079472558,
                    38.397431979177121
                ],
                [
                    27.26127042980626,
                    38.397517565275287
                ],
                [
                    27.261493672806495,
                    38.398372417849266
                ],
                [
                    27.262118326123502,
                    38.399312173835078
                ],
                [
                    27.263203860690172,
                    38.400330002116412
                ],
                [
                    27.266091635319004,
                    38.401426091269734
                ],
                [
                    27.267787980953294,
                    38.402015799181491
                ],
                [
                    27.269232619938808,
                    38.402426211415772
                ],
                [
                    27.271246276272716,
                    38.403199241807407
                ],
                [
                    27.277617582796715,
                    38.404922832286019
                ],
                [
                    27.279041983935404,
                    38.405402338962709
                ],
                [
                    27.2819984714538,
                    38.406279334099423
                ],
                [
                    27.283406195996093,
                    38.40692513122324
                ],
                [
                    27.28410393614752,
                    38.407245210669771
                ],
                [
                    27.285769894928318,
                    38.407766312384872
                ],
                [
                    27.288220293149088,
                    38.408148024200315
                ],
                [
                    27.28966971799586,
                    38.40842660712908
                ],
                [
                    27.290984933913681,
                    38.408564361534225
                ],
                [
                    27.29325160169579,
                    38.408874699932213
                ],
                [
                    27.294693650346524,
                    38.409147628499284
                ],
                [
                    27.296592946383569,
                    38.409619273855469
                ],
                [
                    27.296914469395571,
                    38.409699112846823
                ],
                [
                    27.298269270087715,
                    38.410322705319551
                ],
                [
                    27.299103588595266,
                    38.41081213295336
                ],
                [
                    27.299837228838243,
                    38.411366255162747
                ],
                [
                    27.300900622453003,
                    38.412338326803365
                ],
                [
                    27.301513250646824,
                    38.41337513715056
                ],
                [
                    27.301513404795237,
                    38.413375398026744
                ],
                [
                    27.301891577606806,
                    38.414691303651047
                ],
                [
                    27.301932377969507,
                    38.416934710332129
                ],
                [
                    27.308564054920588,
                    38.415879875135822
                ],
                [
                    27.308964447121497,
                    38.4163893217719
                ],
                [
                    27.31010152743578,
                    38.416204063244386
                ],
                [
                    27.311180742958644,
                    38.415798358313729
                ],
                [
                    27.312012969316271,
                    38.415288859545456
                ],
                [
                    27.313169237922992,
                    38.415166415120325
                ],
                [
                    27.313888758982529,
                    38.414910847513909
                ],
                [
                    27.314777069823649,
                    38.414222136432343
                ],
                [
                    27.315627372509777,
                    38.413518600678984
                ],
                [
                    27.315577134323675,
                    38.412911854819228
                ],
                [
                    27.315849637430368,
                    38.412261225291019
                ],
                [
                    27.316076326589595,
                    38.411628771241915
                ],
                [
                    27.316281248083758,
                    38.411267165373971
                ],
                [
                    27.3168077723147,
                    38.410994953912095
                ],
                [
                    27.317220521456449,
                    38.410939679932248
                ],
                [
                    27.317586039980704,
                    38.410577637140619
                ],
                [
                    27.318112396061846,
                    38.410269314925316
                ],
                [
                    27.318387083700969,
                    38.410124148007405
                ],
                [
                    27.318822849302194,
                    38.41008685854942
                ],
                [
                    27.319234877166014,
                    38.409869105440919
                ],
                [
                    27.319439301320838,
                    38.409399179322946
                ],
                [
                    27.320011208719812,
                    38.409018513758525
                ],
                [
                    27.320444018283407,
                    38.408313277556822
                ],
                [
                    27.320831811930947,
                    38.407806742270971
                ],
                [
                    27.321333992948936,
                    38.407227681541087
                ],
                [
                    27.321630725247903,
                    38.406883867137523
                ],
                [
                    27.322111473229736,
                    38.40664786264027
                ],
                [
                    27.322845304747659,
                    38.406573633669069
                ],
                [
                    27.323258104398569,
                    38.406536390969578
                ],
                [
                    27.323507030863759,
                    38.405454660641652
                ],
                [
                    27.323086355062639,
                    38.404920949557635
                ],
                [
                    27.32287418977387,
                    38.404242659172994
                ],
                [
                    27.322948958673777,
                    38.403419574604662
                ],
                [
                    27.32344337962601,
                    38.402903912583419
                ],
                [
                    27.324354325333154,
                    38.401996229521018
                ],
                [
                    27.324363341990875,
                    38.401992294529713
                ],
                [
                    27.324876157278648,
                    38.40176849316132
                ],
                [
                    27.325526574990473,
                    38.401067242160238
                ],
                [
                    27.325601473366063,
                    38.400959178245039
                ],
                [
                    27.325812289587049,
                    38.400655009100937
                ],
                [
                    27.32649067972082,
                    38.40036511447331
                ],
                [
                    27.326959376451413,
                    38.399952368943815
                ],
                [
                    27.327478773356717,
                    38.399189756274922
                ],
                [
                    27.328363202159792,
                    38.39822039974603
                ],
                [
                    27.328751136054983,
                    38.398009877689184
                ],
                [
                    27.329328267883362,
                    38.3977445376329
                ],
                [
                    27.329901960967582,
                    38.397434345201752
                ],
                [
                    27.330238327011397,
                    38.39667223486159
                ],
                [
                    27.330784087255982,
                    38.39597124893897
                ],
                [
                    27.332386947996181,
                    38.394605617603951
                ],
                [
                    27.332653045321635,
                    38.394378896585053
                ],
                [
                    27.333597017774963,
                    38.393839920185961
                ],
                [
                    27.333864738513252,
                    38.393800113512512
                ],
                [
                    27.334618474346946,
                    38.393688039051128
                ],
                [
                    27.335085825430458,
                    38.39378960398642
                ],
                [
                    27.335235976240419,
                    38.393822234367128
                ],
                [
                    27.335688998770824,
                    38.393920682690243
                ],
                [
                    27.335942636367793,
                    38.393897133513072
                ],
                [
                    27.336603492317618,
                    38.393835773187142
                ],
                [
                    27.33680405888752,
                    38.3938509501327
                ],
                [
                    27.336830147463186,
                    38.393954088857733
                ],
                [
                    27.336918836958937,
                    38.394304712138506
                ],
                [
                    27.337250352772426,
                    38.395615288907059
                ],
                [
                    27.338516983476769,
                    38.400622188390223
                ],
                [
                    27.338545946580265,
                    38.400736669030927
                ],
                [
                    27.338537025076675,
                    38.400921460780587
                ],
                [
                    27.338463080383995,
                    38.402453048884809
                ],
                [
                    27.338024054694316,
                    38.405743583522174
                ],
                [
                    27.338476270597397,
                    38.406343627685217
                ],
                [
                    27.338858349731897,
                    38.406850598350466
                ],
                [
                    27.338493751607555,
                    38.409031494763951
                ],
                [
                    27.33959831557722,
                    38.412031542109212
                ],
                [
                    27.338970505172771,
                    38.413821001906008
                ],
                [
                    27.345649853685369,
                    38.4232402448738
                ],
                [
                    27.344289363418017,
                    38.4265309895365
                ],
                [
                    27.341166993139275,
                    38.434082173228731
                ],
                [
                    27.336250843934597,
                    38.437741419946434
                ],
                [
                    27.333991617026587,
                    38.4394228415196
                ],
                [
                    27.336544207011048,
                    38.444683461684292
                ],
                [
                    27.339653086147518,
                    38.451089413553788
                ],
                [
                    27.333195569371117,
                    38.452474250803355
                ],
                [
                    27.323952406140023,
                    38.457796855783741
                ],
                [
                    27.320621921842058,
                    38.461449596541229
                ],
                [
                    27.321734422915842,
                    38.4662321161114
                ],
                [
                    27.322420185345187,
                    38.466950789308463
                ],
                [
                    27.323110776012872,
                    38.469288348667213
                ],
                [
                    27.323235347891568,
                    38.469709991428985
                ],
                [
                    27.322725063781924,
                    38.469780937245019
                ],
                [
                    27.321806949635569,
                    38.470059629869276
                ],
                [
                    27.32165141639155,
                    38.470562798861749
                ],
                [
                    27.323099833695647,
                    38.471073253611593
                ],
                [
                    27.324278219698606,
                    38.471203651268645
                ],
                [
                    27.324613730459468,
                    38.472020558257952
                ],
                [
                    27.325064257790675,
                    38.472767463417348
                ],
                [
                    27.326053368335415,
                    38.473164941855735
                ],
                [
                    27.326372493935416,
                    38.473182078287515
                ],
                [
                    27.326391994696451,
                    38.473626372170742
                ],
                [
                    27.326256779273603,
                    38.473924590859816
                ],
                [
                    27.326325694644449,
                    38.474361723533661
                ],
                [
                    27.325815479596361,
                    38.475235901823751
                ],
                [
                    27.32557647910129,
                    38.476027887851522
                ],
                [
                    27.32519176411726,
                    38.476782141764289
                ],
                [
                    27.325058290101207,
                    38.476768211089286
                ],
                [
                    27.324967093560865,
                    38.476716027047111
                ],
                [
                    27.324285063730198,
                    38.477164107391182
                ],
                [
                    27.324152404326139,
                    38.477332272735254
                ],
                [
                    27.324027551517581,
                    38.477347872424374
                ],
                [
                    27.323754480084109,
                    38.477578396448742
                ],
                [
                    27.323573125511416,
                    38.477661207502862
                ],
                [
                    27.323364944526038,
                    38.477892981514557
                ],
                [
                    27.323096268058908,
                    38.478837587951432
                ],
                [
                    27.323155942378531,
                    38.478960173556516
                ],
                [
                    27.323304649932332,
                    38.478989557097727
                ],
                [
                    27.323326651812593,
                    38.479163491750214
                ],
                [
                    27.323370947846858,
                    38.479237257959689
                ],
                [
                    27.323336732753191,
                    38.47938393749623
                ],
                [
                    27.323413079471287,
                    38.479505285203949
                ],
                [
                    27.323394014505336,
                    38.479649539438853
                ],
                [
                    27.323515428778382,
                    38.479677806277067
                ],
                [
                    27.323063337395247,
                    38.480291612435956
                ],
                [
                    27.322748701570777,
                    38.480452173779746
                ],
                [
                    27.322662913483168,
                    38.480933876509475
                ],
                [
                    27.322777010227046,
                    38.481172403252252
                ],
                [
                    27.322881133572267,
                    38.481250947943387
                ],
                [
                    27.323438782994323,
                    38.480915053077723
                ],
                [
                    27.323618621708274,
                    38.480853062326823
                ],
                [
                    27.323756980117018,
                    38.480872701519445
                ],
                [
                    27.323903178904402,
                    38.481018167531765
                ],
                [
                    27.323862849295139,
                    38.481320260146347
                ],
                [
                    27.324043643918138,
                    38.481381373729057
                ],
                [
                    27.324201762922687,
                    38.481434684229704
                ],
                [
                    27.324549296348415,
                    38.481250788801326
                ],
                [
                    27.325146604155936,
                    38.481523412622245
                ],
                [
                    27.32530983197157,
                    38.481530166558976
                ],
                [
                    27.325396870332867,
                    38.4815548098545
                ],
                [
                    27.326472005728213,
                    38.48264316291894
                ],
                [
                    27.325751188701325,
                    38.4832220465817
                ],
                [
                    27.328560246753632,
                    38.488921643272818
                ],
                [
                    27.329145273333769,
                    38.488875772345615
                ],
                [
                    27.329992089292745,
                    38.488654759020164
                ],
                [
                    27.331759714974449,
                    38.489464626466336
                ],
                [
                    27.331660366460788,
                    38.489572393077928
                ],
                [
                    27.331882307314327,
                    38.490323287969929
                ],
                [
                    27.331956250466149,
                    38.490826831125133
                ],
                [
                    27.332127357487394,
                    38.490822293170119
                ],
                [
                    27.332152886249666,
                    38.491140579356731
                ],
                [
                    27.333122720575521,
                    38.49204480031247
                ],
                [
                    27.333214726712047,
                    38.492413850280158
                ],
                [
                    27.333200096404866,
                    38.49278825568669
                ],
                [
                    27.333381790424234,
                    38.493980255663871
                ],
                [
                    27.333718382944447,
                    38.493967495828485
                ],
                [
                    27.334131541340724,
                    38.4939149710086
                ],
                [
                    27.334468664552922,
                    38.493774701428784
                ],
                [
                    27.334594033837845,
                    38.49360014470399
                ],
                [
                    27.335080727150732,
                    38.4934947959168
                ],
                [
                    27.335196545291481,
                    38.493299084028493
                ],
                [
                    27.335195545117571,
                    38.493083142544918
                ],
                [
                    27.335357631600775,
                    38.49311271073072
                ],
                [
                    27.335778701856835,
                    38.4936620913408
                ],
                [
                    27.336058356363807,
                    38.493930147401286
                ],
                [
                    27.336126884728724,
                    38.493937759311308
                ],
                [
                    27.336277866670596,
                    38.493845004561756
                ],
                [
                    27.336643073663534,
                    38.493469151311821
                ],
                [
                    27.338573459598532,
                    38.494474290279818
                ],
                [
                    27.341458117174213,
                    38.495812965278027
                ],
                [
                    27.341825412231969,
                    38.495741877668969
                ],
                [
                    27.341909507376162,
                    38.495974080156564
                ],
                [
                    27.342137993793415,
                    38.495967155528142
                ],
                [
                    27.342204754354135,
                    38.496336107036392
                ],
                [
                    27.342987891166533,
                    38.496678614093909
                ],
                [
                    27.34335341890063,
                    38.49669837390195
                ],
                [
                    27.343752177091808,
                    38.496360438984695
                ],
                [
                    27.343845968630117,
                    38.496184738909989
                ],
                [
                    27.344160400551619,
                    38.496486995627549
                ],
                [
                    27.344513306374751,
                    38.496715726874264
                ],
                [
                    27.344774151146538,
                    38.49697332986193
                ],
                [
                    27.344841724176,
                    38.497151416015448
                ],
                [
                    27.34471083882698,
                    38.497453775282366
                ],
                [
                    27.345225153537903,
                    38.497928257775961
                ],
                [
                    27.345442825033032,
                    38.498035349903155
                ],
                [
                    27.345510047972443,
                    38.498393628435579
                ],
                [
                    27.346001598164037,
                    38.498690590634375
                ],
                [
                    27.346260571509912,
                    38.498808046592458
                ],
                [
                    27.346592131298092,
                    38.498907713011427
                ],
                [
                    27.346887947629778,
                    38.499118014634512
                ],
                [
                    27.346836322096689,
                    38.499231144833594
                ],
                [
                    27.346949381088777,
                    38.4994057581434
                ],
                [
                    27.347280232459585,
                    38.499458168064926
                ],
                [
                    27.347316900581827,
                    38.499514786394592
                ],
                [
                    27.34724580219633,
                    38.4997414285359
                ],
                [
                    27.347542141338625,
                    38.5000594605849
                ],
                [
                    27.347718667558325,
                    38.500459680605054
                ],
                [
                    27.347998365202415,
                    38.500595900714323
                ],
                [
                    27.348062615001432,
                    38.500711309019721
                ],
                [
                    27.348111375960354,
                    38.501074646039569
                ],
                [
                    27.348163517081563,
                    38.501194857232008
                ],
                [
                    27.348126337864247,
                    38.501347510922308
                ],
                [
                    27.348025337896718,
                    38.501474135833355
                ],
                [
                    27.348023812541996,
                    38.501787568972908
                ],
                [
                    27.3479689558079,
                    38.502048723784647
                ],
                [
                    27.348098561829666,
                    38.50219373149951
                ],
                [
                    27.348495367172333,
                    38.502330792100665
                ],
                [
                    27.348497132076524,
                    38.502448771470249
                ],
                [
                    27.348741171096904,
                    38.502736447236188
                ],
                [
                    27.348645972234269,
                    38.502990660159654
                ],
                [
                    27.348642756242292,
                    38.503084967590027
                ],
                [
                    27.348865494451836,
                    38.50323208072664
                ],
                [
                    27.348827699973356,
                    38.503445753678569
                ],
                [
                    27.348879530501922,
                    38.50362674433353
                ],
                [
                    27.349130019548149,
                    38.503741358889926
                ],
                [
                    27.349364089964691,
                    38.503973289405273
                ],
                [
                    27.349447405384979,
                    38.504392534532435
                ],
                [
                    27.34976407880065,
                    38.5046442390872
                ],
                [
                    27.349796526113813,
                    38.504849503379056
                ],
                [
                    27.349955710307007,
                    38.505294671841035
                ],
                [
                    27.349903667619735,
                    38.506372242771974
                ],
                [
                    27.350350620946728,
                    38.506590187662844
                ],
                [
                    27.350581028253682,
                    38.507190136677934
                ],
                [
                    27.350770249188852,
                    38.507427918786661
                ],
                [
                    27.351053643351023,
                    38.507694020239754
                ],
                [
                    27.351107732148495,
                    38.50821345782807
                ],
                [
                    27.35091227205524,
                    38.509191272100104
                ],
                [
                    27.35096860197725,
                    38.510022616010694
                ],
                [
                    27.351273336450369,
                    38.511707148860253
                ],
                [
                    27.350871870231273,
                    38.512118311083455
                ],
                [
                    27.350915681001872,
                    38.512394663890035
                ],
                [
                    27.350838956914057,
                    38.51289315257052
                ],
                [
                    27.350936147210696,
                    38.51297807489501
                ],
                [
                    27.351396144133879,
                    38.5130733655871
                ],
                [
                    27.351778665692756,
                    38.513307697967392
                ],
                [
                    27.351803648515688,
                    38.513547074053378
                ],
                [
                    27.351865211817255,
                    38.513723923875965
                ],
                [
                    27.352047890746704,
                    38.513714244680152
                ],
                [
                    27.352195953459624,
                    38.514035901531642
                ],
                [
                    27.352123892278449,
                    38.514189137716336
                ],
                [
                    27.352374360913121,
                    38.514789022055147
                ],
                [
                    27.352434740356081,
                    38.514853194429975
                ],
                [
                    27.352513670267371,
                    38.514988815408053
                ],
                [
                    27.352472579848861,
                    38.515147678937986
                ],
                [
                    27.352560548345917,
                    38.515270401879533
                ],
                [
                    27.352637728502842,
                    38.51542032891907
                ],
                [
                    27.352673016588724,
                    38.515564661673807
                ],
                [
                    27.352620774874588,
                    38.5156763658768
                ],
                [
                    27.352803625887237,
                    38.516219249096473
                ],
                [
                    27.352500877507289,
                    38.516471856114862
                ],
                [
                    27.352471878708918,
                    38.51687093811757
                ],
                [
                    27.352282965144717,
                    38.516951591346967
                ],
                [
                    27.351969997169931,
                    38.517723349834569
                ],
                [
                    27.351936463491374,
                    38.517939393938342
                ],
                [
                    27.351765950876917,
                    38.518061463604148
                ],
                [
                    27.351694705647887,
                    38.518383447400261
                ],
                [
                    27.351339441363919,
                    38.518694842619404
                ],
                [
                    27.351349473946556,
                    38.518886444349867
                ],
                [
                    27.351221613734516,
                    38.519295743606044
                ],
                [
                    27.351003224176711,
                    38.51961816800565
                ],
                [
                    27.350666592098278,
                    38.519800916558552
                ],
                [
                    27.3501419092355,
                    38.520164742138746
                ],
                [
                    27.350062193692395,
                    38.520513823499229
                ],
                [
                    27.3503720667683,
                    38.520650419052011
                ],
                [
                    27.350373481021489,
                    38.520654800813304
                ],
                [
                    27.350625369064939,
                    38.521435213196234
                ],
                [
                    27.351033265135243,
                    38.521775067442981
                ],
                [
                    27.350991701530564,
                    38.522406575587858
                ],
                [
                    27.350983932309905,
                    38.522488698744347
                ],
                [
                    27.35075428389257,
                    38.522520639035989
                ],
                [
                    27.350600048713392,
                    38.522488250497872
                ],
                [
                    27.350359913696575,
                    38.522468190976355
                ],
                [
                    27.350223432740435,
                    38.522478252197537
                ],
                [
                    27.350134170726182,
                    38.522537367134582
                ],
                [
                    27.350122330589002,
                    38.522798917824979
                ],
                [
                    27.350059838154408,
                    38.522925905666646
                ],
                [
                    27.350059714079247,
                    38.5231509064277
                ],
                [
                    27.350110049235013,
                    38.52352067187072
                ],
                [
                    27.350166655172487,
                    38.523681625814469
                ],
                [
                    27.350251382095635,
                    38.523885398255949
                ],
                [
                    27.350372237867862,
                    38.524026294451019
                ],
                [
                    27.350287293610183,
                    38.5242382069625
                ],
                [
                    27.350752590860544,
                    38.524632310675564
                ],
                [
                    27.351047978632337,
                    38.524467426512089
                ],
                [
                    27.3511958331583,
                    38.524815907697928
                ],
                [
                    27.351297331520989,
                    38.524902113582876
                ],
                [
                    27.351294911234017,
                    38.525345728861147
                ],
                [
                    27.351317766655804,
                    38.525553499566833
                ],
                [
                    27.351463921259242,
                    38.525873012809782
                ],
                [
                    27.351790794200088,
                    38.526159102723277
                ],
                [
                    27.351960365370548,
                    38.526500339968834
                ],
                [
                    27.351926865677239,
                    38.52657402947785
                ],
                [
                    27.352181680278203,
                    38.527310830695257
                ],
                [
                    27.352370399418678,
                    38.527911903987409
                ],
                [
                    27.352470885582189,
                    38.528055090607793
                ],
                [
                    27.35256621985895,
                    38.528329246112826
                ],
                [
                    27.352533176107716,
                    38.528411049216388
                ],
                [
                    27.352463693809412,
                    38.528483848000221
                ],
                [
                    27.352560569414756,
                    38.528759959945582
                ],
                [
                    27.352791216273094,
                    38.528876661272832
                ],
                [
                    27.352906303068071,
                    38.529012165279582
                ],
                [
                    27.352981593879658,
                    38.529131448498354
                ],
                [
                    27.35306498272956,
                    38.52921900883041
                ],
                [
                    27.353209359609252,
                    38.52927908937361
                ],
                [
                    27.353171674888035,
                    38.529539866717094
                ],
                [
                    27.352870589305184,
                    38.529522659733175
                ],
                [
                    27.352933879919906,
                    38.529807532760017
                ],
                [
                    27.353101105387886,
                    38.529752685520059
                ],
                [
                    27.353069542226333,
                    38.530232733224508
                ],
                [
                    27.353166059449038,
                    38.530424312036381
                ],
                [
                    27.353405074295782,
                    38.530281774336579
                ],
                [
                    27.353447324384351,
                    38.530522069761574
                ],
                [
                    27.353796643467415,
                    38.530837260625269
                ],
                [
                    27.353796803113866,
                    38.5308378939068
                ],
                [
                    27.353979209996098,
                    38.5317895908732
                ],
                [
                    27.353702029456691,
                    38.532070724861555
                ],
                [
                    27.353572904161947,
                    38.532266643315296
                ],
                [
                    27.353517518102706,
                    38.532507474169996
                ],
                [
                    27.353593977660168,
                    38.532871362310765
                ],
                [
                    27.353618225867066,
                    38.53314228414402
                ],
                [
                    27.353716361609514,
                    38.533387014997416
                ],
                [
                    27.35369681088731,
                    38.533615866431347
                ],
                [
                    27.353725021297361,
                    38.533849804115469
                ],
                [
                    27.353907467403371,
                    38.5340502298696
                ],
                [
                    27.354109147309874,
                    38.53466973073693
                ],
                [
                    27.354090984010284,
                    38.53497918060777
                ],
                [
                    27.353065705047193,
                    38.534853331218308
                ],
                [
                    27.352776674192508,
                    38.53469927631334
                ],
                [
                    27.352760105641138,
                    38.534413309349432
                ],
                [
                    27.352100943419309,
                    38.534259981455811
                ],
                [
                    27.352035774340123,
                    38.534254681808243
                ],
                [
                    27.35204136397434,
                    38.534130709810448
                ],
                [
                    27.35175089694761,
                    38.534068071534513
                ],
                [
                    27.350279924825394,
                    38.534191290637175
                ],
                [
                    27.350256004741464,
                    38.534272617554258
                ],
                [
                    27.350018366683553,
                    38.534248373181462
                ],
                [
                    27.346967507743319,
                    38.535097984713225
                ],
                [
                    27.334427424190721,
                    38.542451445195788
                ],
                [
                    27.322965068394048,
                    38.543076288662363
                ],
                [
                    27.321785019738204,
                    38.543019950979073
                ],
                [
                    27.320228216327255,
                    38.5423495384426
                ],
                [
                    27.31752551789878,
                    38.542793925337996
                ],
                [
                    27.314588549194827,
                    38.543072976071741
                ],
                [
                    27.310023083204349,
                    38.5428935187936
                ],
                [
                    27.307629476606202,
                    38.542777032288704
                ],
                [
                    27.305580787065974,
                    38.5429470071909
                ],
                [
                    27.304775852938462,
                    38.543397574218865
                ],
                [
                    27.301846102696363,
                    38.545056365198064
                ],
                [
                    27.302119265870129,
                    38.547076941957549
                ],
                [
                    27.299038024484403,
                    38.550308631985438
                ],
                [
                    27.295997926591912,
                    38.5548675404178
                ],
                [
                    27.293260554143036,
                    38.559725860764956
                ],
                [
                    27.292597148644269,
                    38.56487920140362
                ],
                [
                    27.281172151180126,
                    38.556468541529981
                ],
                [
                    27.271756383306165,
                    38.556248269126364
                ],
                [
                    27.260078466794305,
                    38.566681981469408
                ],
                [
                    27.249830241958986,
                    38.573027512549167
                ],
                [
                    27.2389736792937,
                    38.571868871921424
                ],
                [
                    27.236244704674675,
                    38.5715774642946
                ],
                [
                    27.224368384272477,
                    38.5724517588126
                ],
                [
                    27.22432454141606,
                    38.572087192638428
                ],
                [
                    27.236081069604939,
                    38.562523618336023
                ],
                [
                    27.229587052840454,
                    38.551420288986634
                ],
                [
                    27.221774355352526,
                    38.549773633502724
                ],
                [
                    27.2197785885219,
                    38.550403314460851
                ],
                [
                    27.219021141142232,
                    38.549090465381511
                ],
                [
                    27.217117019463412,
                    38.546534978361855
                ],
                [
                    27.216726524884855,
                    38.545465941960451
                ],
                [
                    27.215440116841613,
                    38.544000017145784
                ],
                [
                    27.212902662729885,
                    38.543952216994647
                ],
                [
                    27.211091758162677,
                    38.543679813676214
                ],
                [
                    27.209588873598207,
                    38.543286970575714
                ],
                [
                    27.20837356151296,
                    38.543257675029459
                ],
                [
                    27.207203391018176,
                    38.542754395860904
                ],
                [
                    27.2062571190984,
                    38.542159794353353
                ],
                [
                    27.20525357633629,
                    38.541628163653364
                ],
                [
                    27.204410512016381,
                    38.541583058796412
                ],
                [
                    27.202856314277433,
                    38.54113253803353
                ],
                [
                    27.200465204970492,
                    38.539285593991522
                ],
                [
                    27.198950468118234,
                    38.538017532153482
                ],
                [
                    27.197923967470011,
                    38.536976992663746
                ],
                [
                    27.196484603952609,
                    38.536400436293661
                ],
                [
                    27.194248227873032,
                    38.53567969540439
                ],
                [
                    27.192539338267224,
                    38.535598456624939
                ],
                [
                    27.190933639667449,
                    38.535634404904812
                ],
                [
                    27.188628262435689,
                    38.536219706310682
                ],
                [
                    27.187362448876591,
                    38.534910753955032
                ],
                [
                    27.18677201497356,
                    38.534394519161687
                ],
                [
                    27.186400492119322,
                    38.534069679788267
                ],
                [
                    27.186883491988628,
                    38.530630173175467
                ],
                [
                    27.186615884558627,
                    38.529843750933665
                ],
                [
                    27.186285010859834,
                    38.529512148628427
                ],
                [
                    27.186194049957674,
                    38.529368654859873
                ],
                [
                    27.186136166388064,
                    38.5292032537493
                ],
                [
                    27.186082868192003,
                    38.528958860197484
                ],
                [
                    27.185972248131272,
                    38.5287672140022
                ],
                [
                    27.185894652885288,
                    38.528383694412547
                ],
                [
                    27.185827049788831,
                    38.528161890499689
                ],
                [
                    27.185788117638644,
                    38.527917474078237
                ],
                [
                    27.185781189156884,
                    38.527510622028572
                ],
                [
                    27.185722642268832,
                    38.527405141585206
                ],
                [
                    27.185633296607485,
                    38.526388412727009
                ],
                [
                    27.185964344381325,
                    38.525661599272965
                ],
                [
                    27.178786312953957,
                    38.512069417150748
                ],
                [
                    27.175000530070239,
                    38.508812380347962
                ],
                [
                    27.175919938054943,
                    38.506640138351088
                ],
                [
                    27.182739085848258,
                    38.501266397452817
                ],
                [
                    27.182153757240563,
                    38.500127646665888
                ],
                [
                    27.181909006408706,
                    38.498943943611756
                ],
                [
                    27.181664263662928,
                    38.497760239787191
                ],
                [
                    27.181963182482104,
                    38.496679910734947
                ],
                [
                    27.182445821058597,
                    38.495362251203133
                ],
                [
                    27.18421574505949,
                    38.494545587447618
                ],
                [
                    27.184346831264172,
                    38.493669849280288
                ],
                [
                    27.184015571322721,
                    38.492315761854449
                ],
                [
                    27.184029657179668,
                    38.492084672621559
                ],
                [
                    27.183836059040559,
                    38.491495915531395
                ],
                [
                    27.183464186959508,
                    38.4908432925925
                ],
                [
                    27.18298074130006,
                    38.49026318017598
                ],
                [
                    27.1826426718884,
                    38.490011104935384
                ],
                [
                    27.180968730970207,
                    38.489167802526218
                ],
                [
                    27.180452645026747,
                    38.488860236031769
                ],
                [
                    27.179655392077876,
                    38.488497871811219
                ],
                [
                    27.179139305157587,
                    38.488185708768761
                ],
                [
                    27.178898675984744,
                    38.487932933551633
                ],
                [
                    27.179404687056007,
                    38.487786585333886
                ],
                [
                    27.179590739889317,
                    38.487614062771726
                ],
                [
                    27.179730884893086,
                    38.487555833974383
                ],
                [
                    27.179801828767864,
                    38.487554644450832
                ],
                [
                    27.179908203678387,
                    38.487605739892821
                ],
                [
                    27.18040787474488,
                    38.487723345341564
                ],
                [
                    27.18081404700969,
                    38.487669120761637
                ],
                [
                    27.180988914362207,
                    38.487606963393873
                ],
                [
                    27.181427544658742,
                    38.48760781856241
                ],
                [
                    27.18152720843112,
                    38.487541362302714
                ],
                [
                    27.181574536184332,
                    38.487261215720807
                ],
                [
                    27.181727684042368,
                    38.487178641561847
                ],
                [
                    27.182078228480751,
                    38.4871540463936
                ],
                [
                    27.182212792714729,
                    38.487202393528307
                ],
                [
                    27.182357707541708,
                    38.487082175884161
                ],
                [
                    27.182507308784409,
                    38.486639717616725
                ],
                [
                    27.182831559383029,
                    38.486460935917137
                ],
                [
                    27.182955285782555,
                    38.48630219420243
                ],
                [
                    27.1832178737439,
                    38.486214943432444
                ],
                [
                    27.183567354073315,
                    38.486268358870568
                ],
                [
                    27.183952989166887,
                    38.486208029713609
                ],
                [
                    27.1840948054711,
                    38.486089976788435
                ],
                [
                    27.184293869782778,
                    38.485990661648444
                ],
                [
                    27.184415145358937,
                    38.48599668726154
                ],
                [
                    27.184408910306328,
                    38.4859785900075
                ],
                [
                    27.184559924095648,
                    38.485191968211268
                ],
                [
                    27.184964454814548,
                    38.483015729212987
                ],
                [
                    27.185057237581759,
                    38.4827731649289
                ],
                [
                    27.184512140874808,
                    38.482040731532152
                ],
                [
                    27.184444524701433,
                    38.481336318253639
                ],
                [
                    27.184811109300497,
                    38.481031216540956
                ],
                [
                    27.1848225220552,
                    38.481009792660672
                ],
                [
                    27.1849505523427,
                    38.48081878190888
                ],
                [
                    27.185161453168163,
                    38.48047976843354
                ],
                [
                    27.185778284698824,
                    38.480022849909375
                ],
                [
                    27.186807414370044,
                    38.480084351379858
                ],
                [
                    27.187989253262465,
                    38.48008255396951
                ],
                [
                    27.18823823407326,
                    38.479994309935549
                ],
                [
                    27.188064191329492,
                    38.4795298061238
                ],
                [
                    27.1879198583202,
                    38.479193676843543
                ],
                [
                    27.187555261046445,
                    38.478210578417219
                ],
                [
                    27.1874614199838,
                    38.478112130401072
                ],
                [
                    27.187936657821041,
                    38.477764726901661
                ],
                [
                    27.1883206727566,
                    38.477431304310237
                ],
                [
                    27.188401631737086,
                    38.477292516074449
                ],
                [
                    27.188482534837895,
                    38.477120000083545
                ],
                [
                    27.188563925096695,
                    38.4769146202784
                ],
                [
                    27.188586856750049,
                    38.4767693955012
                ],
                [
                    27.1885952290468,
                    38.47672259198643
                ],
                [
                    27.18869972814062,
                    38.476646634261542
                ],
                [
                    27.1888387018461,
                    38.476462998498235
                ],
                [
                    27.188995672868018,
                    38.476232507529339
                ],
                [
                    27.189017774302666,
                    38.476200052279388
                ],
                [
                    27.189384297991229,
                    38.475622793497259
                ],
                [
                    27.189551698603335,
                    38.4753591048917
                ],
                [
                    27.189701115544423,
                    38.475151441814894
                ],
                [
                    27.189851970279634,
                    38.474941772733082
                ],
                [
                    27.190024139049992,
                    38.4747024635269
                ],
                [
                    27.190042649758542,
                    38.474676741415408
                ],
                [
                    27.190221580886767,
                    38.474368495202242
                ],
                [
                    27.19027728983199,
                    38.474185947112879
                ],
                [
                    27.190332189451013,
                    38.474006012763006
                ],
                [
                    27.190421431088748,
                    38.47376358314596
                ],
                [
                    27.190526005766429,
                    38.473596605408069
                ],
                [
                    27.190634354804729,
                    38.473423582162738
                ],
                [
                    27.190949962420767,
                    38.473152275165681
                ],
                [
                    27.191048668724306,
                    38.473067402689949
                ],
                [
                    27.191497234546247,
                    38.472774571409388
                ],
                [
                    27.191884061065934,
                    38.4725724104994
                ],
                [
                    27.192568149380872,
                    38.472285986881886
                ],
                [
                    27.193168623541105,
                    38.472022343891652
                ],
                [
                    27.193448917832711,
                    38.47191624986003
                ],
                [
                    27.194286169212546,
                    38.471599328209884
                ],
                [
                    27.194862295807443,
                    38.471391468503377
                ],
                [
                    27.194973440738398,
                    38.471351376772496
                ],
                [
                    27.195481369756696,
                    38.471244107770808
                ],
                [
                    27.196164924303833,
                    38.471060036572233
                ],
                [
                    27.196452339054407,
                    38.470928984348824
                ],
                [
                    27.196784756227775,
                    38.47080550979355
                ],
                [
                    27.197892798098984,
                    38.470088899364775
                ],
                [
                    27.198503306048572,
                    38.469723639455452
                ],
                [
                    27.198959094747021,
                    38.469303733029165
                ],
                [
                    27.199407046688609,
                    38.468487597343433
                ],
                [
                    27.200076961879855,
                    38.467376349654842
                ],
                [
                    27.200206068800732,
                    38.466738356817579
                ],
                [
                    27.200217607746822,
                    38.466681255697516
                ],
                [
                    27.200242046859852,
                    38.466588653530515
                ],
                [
                    27.200304181643816,
                    38.46645062757451
                ],
                [
                    27.200505341326913,
                    38.466268230314
                ],
                [
                    27.20078054376263,
                    38.466146377958218
                ],
                [
                    27.201084081774418,
                    38.466086163604544
                ],
                [
                    27.201579583279667,
                    38.465945404622289
                ],
                [
                    27.202202532150359,
                    38.46569820474808
                ],
                [
                    27.202415811946935,
                    38.465611006874433
                ],
                [
                    27.202227452619589,
                    38.465281143762162
                ],
                [
                    27.202083253231311,
                    38.4650398878413
                ],
                [
                    27.201736319864622,
                    38.464479372039833
                ],
                [
                    27.201352527459321,
                    38.463643845210726
                ],
                [
                    27.200980042249629,
                    38.462878203724934
                ],
                [
                    27.200774392112034,
                    38.4628302331243
                ],
                [
                    27.200921154870759,
                    38.4623371017879
                ],
                [
                    27.20094286198697,
                    38.462256737631122
                ],
                [
                    27.201091475531449,
                    38.461706294326092
                ],
                [
                    27.20170819784737,
                    38.461713393334428
                ],
                [
                    27.201866959829953,
                    38.461054321706996
                ],
                [
                    27.201876852096706,
                    38.461012086905377
                ],
                [
                    27.200449449537633,
                    38.460791360853143
                ],
                [
                    27.200340137083437,
                    38.460774448839821
                ],
                [
                    27.200051973151147,
                    38.460713043360791
                ],
                [
                    27.199665925617495,
                    38.460630755795634
                ],
                [
                    27.199185671575815,
                    38.460209070313233
                ],
                [
                    27.198822027137535,
                    38.459932176130835
                ],
                [
                    27.198527117892059,
                    38.4597805381842
                ],
                [
                    27.198565244000136,
                    38.459543247218129
                ],
                [
                    27.199381767949649,
                    38.459340065139493
                ],
                [
                    27.199892542536272,
                    38.459152477357584
                ],
                [
                    27.200238830296854,
                    38.458943845979846
                ],
                [
                    27.200530475585079,
                    38.458726928776578
                ],
                [
                    27.200548618201402,
                    38.458713442739494
                ],
                [
                    27.201318200260552,
                    38.458249483722419
                ],
                [
                    27.201983584526019,
                    38.457909075571351
                ],
                [
                    27.202845156565992,
                    38.457645427720387
                ],
                [
                    27.203308133541658,
                    38.456740703174056
                ],
                [
                    27.203437359515934,
                    38.456595118371361
                ],
                [
                    27.199736241016758,
                    38.455199815327646
                ],
                [
                    27.196557997401481,
                    38.453965618629368
                ],
                [
                    27.193201903784033,
                    38.452717390322086
                ],
                [
                    27.190949422409133,
                    38.451864213482267
                ],
                [
                    27.190819126588803,
                    38.4518149368954
                ],
                [
                    27.188126084076682,
                    38.450784857422022
                ],
                [
                    27.187326891720605,
                    38.4504825285173
                ],
                [
                    27.184517826407347,
                    38.449419361268667
                ],
                [
                    27.184229171163405,
                    38.449310217884936
                ],
                [
                    27.183622571101026,
                    38.449080461748764
                ],
                [
                    27.180726889752329,
                    38.447981019090939
                ]
            ]
        ]
    },
    "properties": {
        "adi": "BORNOVA"
    }
}