{
  "type": "FeatureCollection",
  "generator": "overpass-turbo",
  "copyright": "The data included in this document is from www.openstreetmap.org. The data is made available under ODbL.",
  "timestamp": "2026-05-07T11:32:58Z",
  "features": [
    {
      "type": "Feature",
      "properties": {
        "@id": "relation/10165784",
        "admin_level": "8",
        "boundary": "administrative",
        "name": "Kazımdirik Mahallesi",
        "type": "boundary",
        "wikidata": "Q6041093"
      },
      "geometry": {
        "type": "Polygon",
        "coordinates": [
          [
            [
              27.2033801,
              38.4565793
            ],
            [
              27.1928127,
              38.4525649
            ],
            [
              27.186656,
              38.4502615
            ],
            [
              27.1841872,
              38.4492592
            ],
            [
              27.1828055,
              38.4487344
            ],
            [
              27.1808204,
              38.4479919
            ],
            [
              27.181213,
              38.4458379
            ],
            [
              27.1804294,
              38.4441528
            ],
            [
              27.1801069,
              38.4426359
            ],
            [
              27.1801166,
              38.4419726
            ],
            [
              27.1818964,
              38.443028
            ],
            [
              27.1834063,
              38.4427241
            ],
            [
              27.1836058,
              38.4426294
            ],
            [
              27.1830033,
              38.442143
            ],
            [
              27.1827483,
              38.4414222
            ],
            [
              27.1826039,
              38.4409667
            ],
            [
              27.1837736,
              38.4409054
            ],
            [
              27.1844035,
              38.440968
            ],
            [
              27.185927,
              38.4414048
            ],
            [
              27.1879354,
              38.4421685
            ],
            [
              27.1883523,
              38.442167
            ],
            [
              27.1900654,
              38.4424754
            ],
            [
              27.191087,
              38.442678
            ],
            [
              27.1919399,
              38.4427915
            ],
            [
              27.1929216,
              38.4429343
            ],
            [
              27.1939892,
              38.4429848
            ],
            [
              27.1943968,
              38.443073
            ],
            [
              27.1947402,
              38.4431738
            ],
            [
              27.194944,
              38.4433209
            ],
            [
              27.1951693,
              38.4434973
            ],
            [
              27.1955502,
              38.4437536
            ],
            [
              27.1957701,
              38.4438671
            ],
            [
              27.1960705,
              38.4439847
            ],
            [
              27.1963924,
              38.4440309
            ],
            [
              27.19702,
              38.4440982
            ],
            [
              27.1974117,
              38.4441654
            ],
            [
              27.1979374,
              38.4441822
            ],
            [
              27.2001048,
              38.4442405
            ],
            [
              27.2004286,
              38.4442493
            ],
            [
              27.2055066,
              38.4446107
            ],
            [
              27.2100878,
              38.4453586
            ],
            [
              27.2103399,
              38.4453124
            ],
            [
              27.2108871,
              38.4450225
            ],
            [
              27.2117078,
              38.4446906
            ],
            [
              27.212719,
              38.4442789
            ],
            [
              27.213647,
              38.4440268
            ],
            [
              27.2150405,
              38.4436991
            ],
            [
              27.2177155,
              38.4430338
            ],
            [
              27.2198673,
              38.4425349
            ],
            [
              27.220476,
              38.4423907
            ],
            [
              27.2216511,
              38.4428121
            ],
            [
              27.2238547,
              38.4436586
            ],
            [
              27.2218003,
              38.4456427
            ],
            [
              27.2216355,
              38.4456485
            ],
            [
              27.2214711,
              38.4456527
            ],
            [
              27.2213818,
              38.4456615
            ],
            [
              27.2212438,
              38.4456816
            ],
            [
              27.2211733,
              38.4456937
            ],
            [
              27.2210573,
              38.4457136
            ],
            [
              27.2209863,
              38.4457304
            ],
            [
              27.2208636,
              38.4457609
            ],
            [
              27.2207656,
              38.4457919
            ],
            [
              27.2205806,
              38.4458292
            ],
            [
              27.2204567,
              38.4458886
            ],
            [
              27.220371,
              38.4459353
            ],
            [
              27.2202997,
              38.4459786
            ],
            [
              27.2201847,
              38.4460507
            ],
            [
              27.2201075,
              38.4461053
            ],
            [
              27.2200203,
              38.4461758
            ],
            [
              27.2199165,
              38.4462733
            ],
            [
              27.2198079,
              38.4463842
            ],
            [
              27.2196972,
              38.4465384
            ],
            [
              27.2195588,
              38.4467752
            ],
            [
              27.2194409,
              38.4470037
            ],
            [
              27.219295,
              38.447235
            ],
            [
              27.21911,
              38.4478212
            ],
            [
              27.2190628,
              38.4481822
            ],
            [
              27.2183437,
              38.4497498
            ],
            [
              27.2182743,
              38.4499327
            ],
            [
              27.2181532,
              38.450732
            ],
            [
              27.2180137,
              38.4514378
            ],
            [
              27.217901,
              38.4520764
            ],
            [
              27.2178018,
              38.4523284
            ],
            [
              27.2176516,
              38.4527422
            ],
            [
              27.2173968,
              38.4535299
            ],
            [
              27.2172117,
              38.4540886
            ],
            [
              27.2169891,
              38.4547986
            ],
            [
              27.2168469,
              38.4552271
            ],
            [
              27.2166806,
              38.4556513
            ],
            [
              27.2165519,
              38.4557795
            ],
            [
              27.2161818,
              38.4559811
            ],
            [
              27.215715,
              38.4562143
            ],
            [
              27.2155648,
              38.4563529
            ],
            [
              27.2155622,
              38.4564894
            ],
            [
              27.2156453,
              38.4566742
            ],
            [
              27.2158277,
              38.4571006
            ],
            [
              27.2161227,
              38.4577181
            ],
            [
              27.216267,
              38.4580285
            ],
            [
              27.2163972,
              38.4583415
            ],
            [
              27.2164745,
              38.4585149
            ],
            [
              27.2164775,
              38.4586413
            ],
            [
              27.2164446,
              38.4589218
            ],
            [
              27.2163939,
              38.4593687
            ],
            [
              27.216329,
              38.4596659
            ],
            [
              27.2162654,
              38.4602079
            ],
            [
              27.2162619,
              38.4604117
            ],
            [
              27.2163078,
              38.460543
            ],
            [
              27.2164622,
              38.4605967
            ],
            [
              27.2167695,
              38.4607039
            ],
            [
              27.2169493,
              38.4608106
            ],
            [
              27.2170857,
              38.4610057
            ],
            [
              27.2172326,
              38.461168
            ],
            [
              27.2174056,
              38.461418
            ],
            [
              27.2174799,
              38.4616709
            ],
            [
              27.2177133,
              38.4618977
            ],
            [
              27.2181787,
              38.4625078
            ],
            [
              27.2184093,
              38.4628743
            ],
            [
              27.2182122,
              38.4630171
            ],
            [
              27.2180727,
              38.4631284
            ],
            [
              27.2179869,
              38.4632166
            ],
            [
              27.2179225,
              38.4633195
            ],
            [
              27.2179145,
              38.4634077
            ],
            [
              27.2179815,
              38.4635527
            ],
            [
              27.218121,
              38.4637438
            ],
            [
              27.218357,
              38.4640756
            ],
            [
              27.2184455,
              38.4642205
            ],
            [
              27.2185636,
              38.4645061
            ],
            [
              27.2187301,
              38.4649282
            ],
            [
              27.2189228,
              38.4653517
            ],
            [
              27.218923,
              38.4654953
            ],
            [
              27.2189954,
              38.4660224
            ],
            [
              27.2190433,
              38.4661586
            ],
            [
              27.2188371,
              38.4661043
            ],
            [
              27.2171152,
              38.4653735
            ],
            [
              27.2167879,
              38.4652559
            ],
            [
              27.2159967,
              38.4649472
            ],
            [
              27.2154576,
              38.4647035
            ],
            [
              27.2148728,
              38.4644515
            ],
            [
              27.2139689,
              38.4640504
            ],
            [
              27.2135264,
              38.4638593
            ],
            [
              27.2132099,
              38.4637438
            ],
            [
              27.2129658,
              38.4636745
            ],
            [
              27.2124776,
              38.4635632
            ],
            [
              27.2123381,
              38.4635254
            ],
            [
              27.2118714,
              38.4634266
            ],
            [
              27.2113565,
              38.4632922
            ],
            [
              27.2105223,
              38.4631305
            ],
            [
              27.2089559,
              38.4627021
            ],
            [
              27.2083443,
              38.4639265
            ],
            [
              27.2081966,
              38.4642156
            ],
            [
              27.208119,
              38.4643675
            ],
            [
              27.2079152,
              38.4648296
            ],
            [
              27.2078407,
              38.4652653
            ],
            [
              27.207824,
              38.465363
            ],
            [
              27.2066116,
              38.4654302
            ],
            [
              27.2059898,
              38.4654605
            ],
            [
              27.2058928,
              38.4654596
            ],
            [
              27.2035539,
              38.4654764
            ],
            [
              27.2028887,
              38.4654806
            ],
            [
              27.2023469,
              38.4656108
            ],
            [
              27.2019982,
              38.4650102
            ],
            [
              27.2017984,
              38.4646437
            ],
            [
              27.2015718,
              38.4642793
            ],
            [
              27.2014028,
              38.4639475
            ],
            [
              27.2009495,
              38.4628806
            ],
            [
              27.200751,
              38.462847
            ],
            [
              27.2011292,
              38.4617108
            ],
            [
              27.2016764,
              38.4617612
            ],
            [
              27.2016915,
              38.4617153
            ],
            [
              27.2019093,
              38.4610509
            ],
            [
              27.2012982,
              38.4609421
            ],
            [
              27.2000188,
              38.4607247
            ],
            [
              27.1998256,
              38.4606859
            ],
            [
              27.1996593,
              38.4605934
            ],
            [
              27.1992677,
              38.4603225
            ],
            [
              27.1985764,
              38.4597685
            ],
            [
              27.1986358,
              38.4594655
            ],
            [
              27.1993107,
              38.4593438
            ],
            [
              27.2001743,
              38.4589195
            ],
            [
              27.2017997,
              38.4579492
            ],
            [
              27.2027385,
              38.4576635
            ],
            [
              27.2033801,
              38.4565793
            ]
          ]
        ]
      },
      "id": "relation/10165784"
    },
    {
      "type": "Feature",
      "properties": {
        "@id": "relation/10323348",
        "admin_level": "8",
        "boundary": "administrative",
        "name": "Erzene Mahallesi",
        "type": "boundary",
        "wikidata": "Q6012074"
      },
      "geometry": {
        "type": "Polygon",
        "coordinates": [
          [
            [
              27.2190433,
              38.4661586
            ],
            [
              27.2189954,
              38.4660224
            ],
            [
              27.218923,
              38.4654953
            ],
            [
              27.2189228,
              38.4653517
            ],
            [
              27.2187301,
              38.4649282
            ],
            [
              27.2185636,
              38.4645061
            ],
            [
              27.2184455,
              38.4642205
            ],
            [
              27.218357,
              38.4640756
            ],
            [
              27.218121,
              38.4637438
            ],
            [
              27.2179815,
              38.4635527
            ],
            [
              27.2179145,
              38.4634077
            ],
            [
              27.2179225,
              38.4633195
            ],
            [
              27.2179869,
              38.4632166
            ],
            [
              27.2180727,
              38.4631284
            ],
            [
              27.2182122,
              38.4630171
            ],
            [
              27.2184093,
              38.4628743
            ],
            [
              27.2181787,
              38.4625078
            ],
            [
              27.2177133,
              38.4618977
            ],
            [
              27.2174799,
              38.4616709
            ],
            [
              27.2174056,
              38.461418
            ],
            [
              27.2172326,
              38.461168
            ],
            [
              27.2170857,
              38.4610057
            ],
            [
              27.2169493,
              38.4608106
            ],
            [
              27.2167695,
              38.4607039
            ],
            [
              27.2164622,
              38.4605967
            ],
            [
              27.2163078,
              38.460543
            ],
            [
              27.2162619,
              38.4604117
            ],
            [
              27.2162654,
              38.4602079
            ],
            [
              27.216329,
              38.4596659
            ],
            [
              27.2163939,
              38.4593687
            ],
            [
              27.2164446,
              38.4589218
            ],
            [
              27.2164775,
              38.4586413
            ],
            [
              27.2164745,
              38.4585149
            ],
            [
              27.2163972,
              38.4583415
            ],
            [
              27.216267,
              38.4580285
            ],
            [
              27.2161227,
              38.4577181
            ],
            [
              27.2158277,
              38.4571006
            ],
            [
              27.2156453,
              38.4566742
            ],
            [
              27.2155622,
              38.4564894
            ],
            [
              27.2155648,
              38.4563529
            ],
            [
              27.215715,
              38.4562143
            ],
            [
              27.2161818,
              38.4559811
            ],
            [
              27.2165519,
              38.4557795
            ],
            [
              27.2166806,
              38.4556513
            ],
            [
              27.2168469,
              38.4552271
            ],
            [
              27.2169891,
              38.4547986
            ],
            [
              27.2172117,
              38.4540886
            ],
            [
              27.2173968,
              38.4535299
            ],
            [
              27.2176516,
              38.4527422
            ],
            [
              27.2178018,
              38.4523284
            ],
            [
              27.217901,
              38.4520764
            ],
            [
              27.2180137,
              38.4514378
            ],
            [
              27.2181532,
              38.450732
            ],
            [
              27.2182743,
              38.4499327
            ],
            [
              27.2184133,
              38.449875
            ],
            [
              27.2187406,
              38.4498792
            ],
            [
              27.219277,
              38.4499212
            ],
            [
              27.2198725,
              38.4499884
            ],
            [
              27.2206342,
              38.4501439
            ],
            [
              27.2218466,
              38.4503749
            ],
            [
              27.2222006,
              38.4504127
            ],
            [
              27.2226137,
              38.4504043
            ],
            [
              27.2229892,
              38.4503833
            ],
            [
              27.2238743,
              38.4502783
            ],
            [
              27.2244,
              38.4501859
            ],
            [
              27.2248721,
              38.4501397
            ],
            [
              27.2258484,
              38.4501018
            ],
            [
              27.2261649,
              38.4500976
            ],
            [
              27.2264546,
              38.4500766
            ],
            [
              27.2270983,
              38.44998
            ],
            [
              27.2275382,
              38.4499338
            ],
            [
              27.227844,
              38.4499338
            ],
            [
              27.2280586,
              38.44998
            ],
            [
              27.2284716,
              38.4501271
            ],
            [
              27.2291207,
              38.4503707
            ],
            [
              27.2294104,
              38.4504968
            ],
            [
              27.2295767,
              38.4506102
            ],
            [
              27.2298127,
              38.4507362
            ],
            [
              27.2300595,
              38.4508665
            ],
            [
              27.2303384,
              38.4509505
            ],
            [
              27.2306013,
              38.4510219
            ],
            [
              27.2307998,
              38.4511311
            ],
            [
              27.2309446,
              38.4512319
            ],
            [
              27.2310787,
              38.4512614
            ],
            [
              27.2312933,
              38.4512782
            ],
            [
              27.2318995,
              38.4512109
            ],
            [
              27.2327226,
              38.4512026
            ],
            [
              27.23283,
              38.4511599
            ],
            [
              27.2334211,
              38.4511647
            ],
            [
              27.233465,
              38.4510832
            ],
            [
              27.2350022,
              38.4511073
            ],
            [
              27.2356534,
              38.451125
            ],
            [
              27.2362529,
              38.4511092
            ],
            [
              27.2361806,
              38.4520503
            ],
            [
              27.2362879,
              38.4520644
            ],
            [
              27.2370016,
              38.4520765
            ],
            [
              27.23711,
              38.4521406
            ],
            [
              27.2371938,
              38.4521764
            ],
            [
              27.2394673,
              38.4522473
            ],
            [
              27.2394703,
              38.4523998
            ],
            [
              27.2395009,
              38.4527065
            ],
            [
              27.239517,
              38.4530594
            ],
            [
              27.2395652,
              38.4536895
            ],
            [
              27.239576,
              38.4540214
            ],
            [
              27.2395331,
              38.4542104
            ],
            [
              27.2394633,
              38.4545297
            ],
            [
              27.239399,
              38.4546978
            ],
            [
              27.239399,
              38.4549246
            ],
            [
              27.2395223,
              38.4555295
            ],
            [
              27.2396564,
              38.4562941
            ],
            [
              27.2397208,
              38.4565503
            ],
            [
              27.2398013,
              38.4567982
            ],
            [
              27.239989,
              38.4572392
            ],
            [
              27.2401339,
              38.4575963
            ],
            [
              27.2402412,
              38.4577895
            ],
            [
              27.2404013,
              38.458014
            ],
            [
              27.2413686,
              38.4593236
            ],
            [
              27.238208,
              38.4598983
            ],
            [
              27.2386265,
              38.4615322
            ],
            [
              27.2396779,
              38.4613811
            ],
            [
              27.2400641,
              38.4637207
            ],
            [
              27.2401392,
              38.4643171
            ],
            [
              27.2402358,
              38.4650648
            ],
            [
              27.2403216,
              38.465804
            ],
            [
              27.2389912,
              38.4657032
            ],
            [
              27.2384012,
              38.4656948
            ],
            [
              27.2378647,
              38.465762
            ],
            [
              27.236985,
              38.4659468
            ],
            [
              27.2361803,
              38.4661484
            ],
            [
              27.2356331,
              38.4662912
            ],
            [
              27.235086,
              38.4665517
            ],
            [
              27.2343457,
              38.4668373
            ],
            [
              27.234925,
              38.4670725
            ],
            [
              27.2355258,
              38.4673749
            ],
            [
              27.2360301,
              38.4676689
            ],
            [
              27.2365022,
              38.4678873
            ],
            [
              27.2369742,
              38.4681477
            ],
            [
              27.2374785,
              38.4683661
            ],
            [
              27.2378862,
              38.4685425
            ],
            [
              27.238369,
              38.4686937
            ],
            [
              27.2388196,
              38.4688281
            ],
            [
              27.2391951,
              38.4690885
            ],
            [
              27.2399568,
              38.4695001
            ],
            [
              27.2404718,
              38.4697941
            ],
            [
              27.2409546,
              38.4700377
            ],
            [
              27.2413087,
              38.4701301
            ],
            [
              27.24177,
              38.4703989
            ],
            [
              27.2422528,
              38.4707433
            ],
            [
              27.2426712,
              38.4711213
            ],
            [
              27.2430253,
              38.4713985
            ],
            [
              27.2436476,
              38.4716085
            ],
            [
              27.2444308,
              38.4718269
            ],
            [
              27.2450745,
              38.4720117
            ],
            [
              27.2455466,
              38.4721881
            ],
            [
              27.2460723,
              38.4724989
            ],
            [
              27.2466946,
              38.4728937
            ],
            [
              27.2484004,
              38.473784
            ],
            [
              27.2490945,
              38.4742514
            ],
            [
              27.2495769,
              38.474669
            ],
            [
              27.2498686,
              38.4749411
            ],
            [
              27.2513458,
              38.4749427
            ],
            [
              27.2516748,
              38.4749339
            ],
            [
              27.2521924,
              38.4750122
            ],
            [
              27.2524628,
              38.47535
            ],
            [
              27.2535807,
              38.4759556
            ],
            [
              27.2545699,
              38.4755289
            ],
            [
              27.2548471,
              38.4757975
            ],
            [
              27.2552579,
              38.4760251
            ],
            [
              27.2554426,
              38.4761314
            ],
            [
              27.2566066,
              38.4769809
            ],
            [
              27.2568646,
              38.4768368
            ],
            [
              27.2571275,
              38.4770386
            ],
            [
              27.2574073,
              38.4770439
            ],
            [
              27.2576268,
              38.4772353
            ],
            [
              27.2580385,
              38.4773463
            ],
            [
              27.2641124,
              38.4832458
            ],
            [
              27.2671965,
              38.4829533
            ],
            [
              27.2690908,
              38.48741
            ],
            [
              27.267686,
              38.4894182
            ],
            [
              27.2674865,
              38.4910024
            ],
            [
              27.2655414,
              38.4947941
            ],
            [
              27.2501387,
              38.4960079
            ],
            [
              27.2481059,
              38.4953979
            ],
            [
              27.2374296,
              38.4926554
            ],
            [
              27.2338794,
              38.4931918
            ],
            [
              27.2314083,
              38.494421
            ],
            [
              27.2304085,
              38.4950615
            ],
            [
              27.2308549,
              38.4958062
            ],
            [
              27.2295969,
              38.4963649
            ],
            [
              27.228574,
              38.4948796
            ],
            [
              27.2279465,
              38.4945019
            ],
            [
              27.2277974,
              38.4944098
            ],
            [
              27.2276793,
              38.4942656
            ],
            [
              27.2256922,
              38.4922309
            ],
            [
              27.2250636,
              38.4917009
            ],
            [
              27.2248249,
              38.4904562
            ],
            [
              27.2247448,
              38.4903398
            ],
            [
              27.2246253,
              38.4900437
            ],
            [
              27.2246039,
              38.4896826
            ],
            [
              27.2246468,
              38.4894474
            ],
            [
              27.2246683,
              38.4891619
            ],
            [
              27.2246575,
              38.4889604
            ],
            [
              27.2245717,
              38.4887336
            ],
            [
              27.2243571,
              38.4883893
            ],
            [
              27.2241533,
              38.4880198
            ],
            [
              27.2240996,
              38.4877091
            ],
            [
              27.2241104,
              38.48739
            ],
            [
              27.2241425,
              38.4872052
            ],
            [
              27.2241533,
              38.4868273
            ],
            [
              27.2241855,
              38.4862898
            ],
            [
              27.2243464,
              38.4861051
            ],
            [
              27.2244322,
              38.4859203
            ],
            [
              27.2243678,
              38.4856432
            ],
            [
              27.2242927,
              38.4853912
            ],
            [
              27.2242606,
              38.4851897
            ],
            [
              27.2243142,
              38.4849629
            ],
            [
              27.2241645,
              38.4847576
            ],
            [
              27.2238492,
              38.4842493
            ],
            [
              27.2236526,
              38.4834514
            ],
            [
              27.2242602,
              38.4832154
            ],
            [
              27.2250022,
              38.4831409
            ],
            [
              27.2251164,
              38.4826196
            ],
            [
              27.2251164,
              38.4821727
            ],
            [
              27.224812,
              38.4820387
            ],
            [
              27.2247168,
              38.4819046
            ],
            [
              27.2247253,
              38.4817713
            ],
            [
              27.2247398,
              38.4816471
            ],
            [
              27.2246965,
              38.4814439
            ],
            [
              27.2248551,
              38.4811391
            ],
            [
              27.2247686,
              38.4808795
            ],
            [
              27.2248263,
              38.480586
            ],
            [
              27.2253598,
              38.4791975
            ],
            [
              27.2252301,
              38.4791185
            ],
            [
              27.2254539,
              38.4781369
            ],
            [
              27.2255309,
              38.478129
            ],
            [
              27.2256463,
              38.4772033
            ],
            [
              27.2256751,
              38.4770227
            ],
            [
              27.2256463,
              38.4769324
            ],
            [
              27.2255309,
              38.4767179
            ],
            [
              27.2253435,
              38.476255
            ],
            [
              27.2251272,
              38.4757583
            ],
            [
              27.2250118,
              38.4754535
            ],
            [
              27.2248964,
              38.4753858
            ],
            [
              27.2247522,
              38.4753745
            ],
            [
              27.224679,
              38.4753211
            ],
            [
              27.2245878,
              38.4749473
            ],
            [
              27.2245181,
              38.4747038
            ],
            [
              27.2244322,
              38.4744854
            ],
            [
              27.2243625,
              38.4742754
            ],
            [
              27.2242927,
              38.4740318
            ],
            [
              27.2241908,
              38.4738218
            ],
            [
              27.2240299,
              38.4737042
            ],
            [
              27.2238582,
              38.4735656
            ],
            [
              27.2236866,
              38.4733514
            ],
            [
              27.2235686,
              38.4730826
            ],
            [
              27.2234344,
              38.4727719
            ],
            [
              27.2232842,
              38.4724863
            ],
            [
              27.2230697,
              38.4721377
            ],
            [
              27.2228283,
              38.4717975
            ],
            [
              27.2227156,
              38.4715665
            ],
            [
              27.2225386,
              38.4713607
            ],
            [
              27.2224098,
              38.4711801
            ],
            [
              27.2222543,
              38.4710163
            ],
            [
              27.2219861,
              38.4708777
            ],
            [
              27.2219056,
              38.4707727
            ],
            [
              27.2219163,
              38.4706173
            ],
            [
              27.2218519,
              38.4704787
            ],
            [
              27.2217929,
              38.4704031
            ],
            [
              27.2217286,
              38.4703359
            ],
            [
              27.2216642,
              38.4702603
            ],
            [
              27.2215462,
              38.4700797
            ],
            [
              27.221455,
              38.4699621
            ],
            [
              27.2210634,
              38.4695589
            ],
            [
              27.2209293,
              38.4693615
            ],
            [
              27.2208059,
              38.4692103
            ],
            [
              27.2206181,
              38.4689961
            ],
            [
              27.2204947,
              38.4688995
            ],
            [
              27.2204733,
              38.4687903
            ],
            [
              27.2204143,
              38.4686349
            ],
            [
              27.2204357,
              38.4683871
            ],
            [
              27.220431,
              38.4681798
            ],
            [
              27.2206012,
              38.4681293
            ],
            [
              27.2203606,
              38.4680427
            ],
            [
              27.2203767,
              38.4677529
            ],
            [
              27.2202265,
              38.4675681
            ],
            [
              27.220028,
              38.4673959
            ],
            [
              27.2197545,
              38.4672321
            ],
            [
              27.2198349,
              38.4671103
            ],
            [
              27.2196525,
              38.4669717
            ],
            [
              27.2195023,
              38.4668205
            ],
            [
              27.219351,
              38.4665825
            ],
            [
              27.2191876,
              38.466197
            ],
            [
              27.2190433,
              38.4661586
            ]
          ]
        ]
      },
      "id": "relation/10323348"
    },
    {
      "type": "Feature",
      "properties": {
        "@id": "node/7004603838",
        "@relations": [
          {
            "role": "label",
            "rel": 10165784,
            "reltags": {
              "admin_level": "8",
              "boundary": "administrative",
              "name": "Kazımdirik Mahallesi",
              "type": "boundary",
              "wikidata": "Q6041093"
            }
          }
        ]
      },
      "geometry": {
        "type": "Point",
        "coordinates": [
          27.2111158,
          38.4594994
        ]
      },
      "id": "node/7004603838"
    },
    {
      "type": "Feature",
      "properties": {
        "@id": "node/7004603820",
        "@relations": [
          {
            "role": "label",
            "rel": 10323348,
            "reltags": {
              "admin_level": "8",
              "boundary": "administrative",
              "name": "Erzene Mahallesi",
              "type": "boundary",
              "wikidata": "Q6012074"
            }
          }
        ]
      },
      "geometry": {
        "type": "Point",
        "coordinates": [
          27.2211347,
          38.465288
        ]
      },
      "id": "node/7004603820"
    }
  ]
}